SES-8                   
1 39460U 13071A   22250.47670744 -.00000289  00000+0  00000+0 0  9992
2 39460   0.0459 259.8516 0002554 231.9683 121.3245  1.00271462 30606
INMARSAT 5-F1           
1 39476U 13073A   22250.44354862  .00000009  00000+0  00000+0 0  9997
2 39476   0.0272 143.6042 0000550 112.2243 312.9619  1.00271767 31766
TKSAT-1 (TUPAC KATARI)  
1 39481U 13075A   22250.49733678 -.00000214  00000+0  00000+0 0  9995
2 39481   0.0293  90.8425 0002652  56.4682 291.0871  1.00272187 31768
EXPRESS-AM5             
1 39487U 13077A   22249.43899263 -.00000295  00000+0  10000-3 0  9992
2 39487   0.0365 301.4324 0000945  32.5895 309.5436  1.00269408 32504
GSAT-14                 
1 39498U 14001A   22250.52063128 -.00000096  00000+0  00000+0 0  9991
2 39498   0.0676 277.7487 0004821 300.1365  30.1259  1.00270940 31578
THAICOM 6               
1 39500U 14002A   22250.52063128 -.00000141  00000+0  00000+0 0  9997
2 39500   0.0367 129.3289 0004811  40.3654  82.8108  1.00273334 31694
TDRS 12                 
1 39504U 14004A   22250.29131282 -.00000283  00000+0  00000+0 0  9991
2 39504   3.7940 348.7195 0003839 156.3566 265.2878  1.00269845 30453
ABS-2                   
1 39508U 14006A   22250.52063128 -.00000105  00000+0  00000+0 0  9999
2 39508   0.0555 310.2837 0002076 213.0641  85.5516  1.00271637 31469
ATHENA-FIDUS            
1 39509U 14006B   22250.28521699  .00000136  00000+0  00000+0 0  9998
2 39509   0.0293 244.6617 0001629 291.1255 311.0200  1.00271243 31253
TURKSAT 4A              
1 39522U 14007A   22250.22410631  .00000128  00000+0  00000+0 0  9992
2 39522   0.0638 267.9839 0003499 304.2862 256.6702  1.00270455 31167
EXPRESS-AT1             
1 39612U 14010A   22249.36646619  .00000064  00000+0  00000+0 0  9995
2 39612   0.0391 302.4451 0000195 215.9241  14.9907  1.00269760 31212
EXPRESS-AT2             
1 39613U 14010B   22250.51438462 -.00000301  00000+0  00000+0 0  9995
2 39613   0.0456 299.6987 0000512  37.3899 334.4960  1.00271514 30694
AMAZONAS 4A             
1 39616U 14011A   22250.49995279 -.00000272  00000+0  00000+0 0  9997
2 39616   0.0478 285.0285 0003783 245.1630 282.3866  1.00273230 30879
ASTRA 5B                
1 39617U 14011B   22250.30543929  .00000136  00000+0  00000+0 0  9997
2 39617   0.0468 348.9441 0004050 179.1263 319.7284  1.00270389 30846
IRNSS-1B                
1 39635U 14017A   22250.12861892  .00000110  00000+0  00000+0 0  9997
2 39635  29.0046 263.7326 0021459 192.9455 350.8643  1.00270657 30969
LUCH 5V                 
1 39727U 14023A   22250.47722828 -.00000287  00000+0  00000+0 0  9995
2 39727   1.6871  76.3537 0003556 105.2123  71.4747  1.00268352 30535
KAZSAT-3                
1 39728U 14023B   22250.44354862  .00000042  00000+0  00000+0 0  9990
2 39728   0.0126 127.3240 0000079  69.1679   8.1785  1.00271227 28622
EUTELSAT 3B             
1 39773U 14030A   22250.37180109  .00000002  00000+0  00000+0 0  9997
2 39773   0.0648 346.7139 0005412 191.8191 304.8502  1.00273304 30245
ASIASAT 8 (AMOS-7)      
1 40107U 14046A   22250.29863767 -.00000051  00000+0  00000+0 0  9991
2 40107   0.0402 283.4261 0002300 223.3757 303.1788  1.00272229 88315
ASIASAT 6               
1 40141U 14052A   22250.61315866 -.00000382  00000+0  00000+0 0  9991
2 40141   0.0454 287.5263 0000907 225.0802 174.7031  1.00270763 29339
OPTUS 10                
1 40146U 14054A   22250.49467266 -.00000166  00000+0  00000+0 0  9996
2 40146   0.0560 301.3041 0004385 228.7962 150.5208  1.00271249 29295
MEASAT-3B               
1 40147U 14054B   22250.47757549 -.00000261  00000+0  00000+0 0  9997
2 40147   0.0398  31.4901 0001163 126.3225  92.1315  1.00270398 29088
LUCH (OLYMP)            
1 40258U 14058A   22250.37827255 -.00000160  00000+0  00000+0 0  9993
2 40258   0.0476 283.1377 0001939 214.6679 326.7006  1.00270555 29118
HIMAWARI-8              
1 40267U 14060A   22250.51438462 -.00000295  00000+0  00000+0 0  9999
2 40267   0.0319 229.4197 0001171 288.9551 154.0038  1.00269540 28936
IRNSS-1C                
1 40269U 14061A   22250.38781310 -.00000183  00000+0  00000+0 0  9996
2 40269   3.1314 125.4533 0020258   5.6904  78.1136  1.00272046 28861
INTELSAT 30 (IS-30)     
1 40271U 14062A   22250.44336141 -.00000169  00000+0  00000+0 0  9999
2 40271   0.0218 159.0352 0002219 288.3657 323.6473  1.00268099 28750
ARSAT 1                 
1 40272U 14062B   22250.50038880 -.00000278  00000+0  00000+0 0  9997
2 40272   0.0264  84.1650 0001792  80.3792 290.3414  1.00270010 28791
EXPRESS-AM6             
1 40277U 14064A   22250.55118661  .00000078  00000+0  00000+0 0  9992
2 40277   0.0364 303.2864 0000106 242.1686  52.5842  1.00273382 28841
GSAT-16                 
1 40332U 14078A   22250.44354862  .00000066  00000+0  00000+0 0  9999
2 40332   0.0717 274.6528 0006075 198.2621  88.3070  1.00270389 28286
DIRECTV 14              
1 40333U 14078B   22250.50345611 -.00000144  00000+0  00000+0 0  9997
2 40333   0.0153 106.9788 0000256  45.5442 276.0508  1.00270473 28237
YAMAL 401               
1 40345U 14082A   22250.52063128 -.00000246  00000+0  00000+0 0  9990
2 40345   0.0248 137.9834 0000650  99.1006  26.8532  1.00265539 28583
ASTRA 2G                
1 40364U 14089A   22250.30509050  .00000131  00000+0  00000+0 0  9995
2 40364   0.0520 329.1784 0003091 127.1846  28.0020  1.00270848 28149
FENGYUN 2G              
1 40367U 14090A   22250.39095233 -.00000319  00000+0  00000+0 0  9991
2 40367   2.1361  88.6438 0001966 206.0811 291.6170  1.00282913 28172
MUOS-3                  
1 40374U 15002A   22250.36796427 -.00000145  00000+0  00000+0 0  9990
2 40374   2.5848  15.7470 0058751 177.9861 269.6767  1.00271558 27760
INMARSAT 5-F2           
1 40384U 15005A   22250.46936149 -.00000304  00000+0  00000+0 0  9999
2 40384   0.0274 142.7884 0000223 354.3084 323.4070  1.00269407 27166
ABS-3A                  
1 40424U 15010A   22250.37058028 -.00000045  00000+0  00000+0 0  9993
2 40424   0.0170 126.1688 0002237 307.1078  43.5382  1.00270023 27566
EUTELSAT 115 WEST B     
1 40425U 15010B   22250.52613076 -.00000044  00000+0  00000+0 0  9990
2 40425   0.0311  19.5111 0000378 266.7671 134.8017  1.00271787 27571
EXPRESS-AM7             
1 40505U 15012A   22250.28504338  .00000132  00000+0  00000+0 0  9991
2 40505   0.0235 251.2937 0003129 281.2732 316.4001  1.00275269 27180
IRNSS-1D                
1 40547U 15018A   22250.46021507 -.00000275  00000+0  00000+0 0  9994
2 40547  28.8097 263.7617 0020289 192.9986 167.1796  1.00269386 27172
BEIDOU 17               
1 40549U 15019A   22250.60197586 -.00000163  00000+0  00000+0 0  9990
2 40549  51.7438 311.8039 0038648 197.0447 150.2833  1.00279982 27254
THOR 7                  
1 40613U 15022A   22250.29933527 -.00000027  00000+0  00000+0 0  9993
2 40613   0.0099 173.5832 0002692 345.6953 294.1757  1.00270998 26983
TURKMENALEM52E/MONACOSAT
1 40617U 15023A   22250.23803341  .00000085  00000+0  00000+0 0  9995
2 40617   0.0183 185.5557 0002626 348.8810 309.5757  1.00273787 27017
DIRECTV 15              
1 40663U 15026A   22250.50116990 -.00000121  00000+0  00000+0 0  9998
2 40663   0.0143 114.4957 0000538 317.6402 351.9743  1.00267790 26630
SKY MEXICO-1            
1 40664U 15026B   22250.49899359 -.00000253  00000+0  00000+0 0  9990
2 40664   0.0254 126.1214 0002322  63.0628 258.2371  1.00268034 26622
METEOSAT-11 (MSG-4)     
1 40732U 15034A   22250.37110348 -.00000026  00000+0  00000+0 0  9994
2 40732   0.4600  70.8718 0000921  46.5297   2.1812  1.00271517 26202
STAR ONE C4             
1 40733U 15034B   22250.46006470 -.00000284  00000+0  00000+0 0  9991
2 40733   0.0383 358.1503 0001394 192.6873 251.2966  1.00272500 26197
WGS F7 (USA 263)        
1 40746U 15036A   22250.49146521 -.00000001  00000+0  00000+0 0  9999
2 40746   0.0104 152.3864 0000269  37.8119 148.2621  1.00272464 26034
INTELSAT 34 (IS-34)     
1 40874U 15039A   22250.46936103 -.00000304  00000+0  00000+0 0  9990
2 40874   0.0470 303.4730 0000858 125.2274  31.3061  1.00269827 25804
EUTELSAT 8 WEST B       
1 40875U 15039B   22250.36962108 -.00000084  00000+0  00000+0 0  9999
2 40875   0.0670 351.1862 0003455 135.5910 344.7130  1.00272394 25823
GSAT-6                  
1 40880U 15041A   22250.52063128 -.00000180  00000+0  00000+0 0  9997
2 40880   0.0566 276.2498 0004156 255.8251  84.4703  1.00272176 25774
INMARSAT 5-F3           
1 40882U 15042A   22250.44112076  .00000031  00000+0  00000+0 0  9992
2 40882   0.0278 144.0338 0000718 347.3288 193.5247  1.00269893 25731
MUOS-4                  
1 40887U 15044A   22250.43799105 -.00000110  00000+0  00000+0 0  9991
2 40887   2.5639  10.8751 0050474 358.4600 209.8673  1.00271046 25735
TJS-1                   
1 40892U 15046A   22250.25654624 -.00000175  00000+0  00000+0 0  9996
2 40892   0.1086 287.2684 0005904  83.9296 222.4294  1.00272166 25728
EXPRESS-AM8             
1 40895U 15048A   22250.14632818 -.00000129  00000+0  00000+0 0  9999
2 40895   0.0331 302.6661 0000257 315.4857 126.7436  1.00272285 25559
BEIDOU 20               
1 40938U 15053A   22250.49738244 -.00000092  00000+0  00000+0 0  9990
2 40938  51.3744 274.9278 0046230 199.9480 147.3518  1.00273819 25528
SKY MUSTER 1 (NBN1A)    
1 40940U 15054A   22250.51438462 -.00000298  00000+0  00000+0 0  9994
2 40940   0.0137 217.2325 0001972 301.9691 152.7839  1.00269571 25430
ARSAT 2                 
1 40941U 15054B   22250.49855760 -.00000243  00000+0  00000+0 0  9996
2 40941   0.0248  88.1829 0001959  65.0881 291.7577  1.00270429 25495
MORELOS 3               
1 40946U 15056A   22250.52758999 -.00000059  00000+0  00000+0 0  9998
2 40946   3.6169 336.1476 0003324 178.8477 268.3969  1.00271809 25462
APSTAR 9                
1 40982U 15059A   22250.55952590 -.00000286  00000+0  00000+0 0  9999
2 40982   0.0437 250.9633 0002910 290.2971 148.7740  1.00269196 25304
